{"type": "FeatureCollection", "features": [ {"type": "Feature", "properties": {"norad_id": 28659, "name": "DIRECTV 8", "group": "intelsat", "lat": 0.014511077408789064, "lon": 32.86307526559039, "alt_km": 35790.913570379635, "timestamp": "2025-12-22T04:03:38.829395+00:00", "meta": {"OBJECT_NAME": "DIRECTV 8", "OBJECT_ID": "2005-019A", "EPOCH": "2025-12-21T17:45:51.515712", "MEAN_MOTION": 1.00270129, "ECCENTRICITY": 0.0002933, "INCLINATION": 0.0248, "RA_OF_ASC_NODE": 22.4105, "ARG_OF_PERICENTER": 259.858, "MEAN_ANOMALY": 315.7031, "EPHEMERIS_TYPE": 0, "CLASSIFICATION_TYPE": "U", "NORAD_CAT_ID": 28659, "ELEMENT_SET_NO": 999, "REV_AT_EPOCH": 7529, "BSTAR": 0, "MEAN_MOTION_DOT": 0, "MEAN_MOTION_DDOT": 0}, "tle": {"line1": "1 28659U 05019A   25355.74017958  .00000000  00000+0  00000+0 0  9994", "line2": "2 28659   0.0248  22.4105 0002933 259.8580 315.7031  1.00270129 75299"}}, "geometry": {"type": "Point", "coordinates": [32.86307526559039, 0.014511077408789064]}}, {"type": "Feature", "properties": {"norad_id": 28702, "name": "GALAXY 28 (G-28)", "group": "intelsat", "lat": -0.8556794139737752, "lon": 63.23415182603092, "alt_km": 35797.07484409487, "timestamp": "2025-12-22T04:03:38.829406+00:00", "meta": {"OBJECT_NAME": "GALAXY 28 (G-28)", "OBJECT_ID": "2005-022A", "EPOCH": "2025-12-20T00:49:30.482112", "MEAN_MOTION": 1.00271047, "ECCENTRICITY": 0.00029384, "INCLINATION": 2.8382, "RA_OF_ASC_NODE": 81.1982, "ARG_OF_PERICENTER": 194.0723, "MEAN_ANOMALY": 97.2981, "EPHEMERIS_TYPE": 0, "CLASSIFICATION_TYPE": "U", "NORAD_CAT_ID": 28702, "ELEMENT_SET_NO": 999, "REV_AT_EPOCH": 5017, "BSTAR": 0, "MEAN_MOTION_DOT": -1.65e-06, "MEAN_MOTION_DDOT": 0}, "tle": {"line1": "1 28702U 05022A   25354.03438058 -.00000165  00000+0  00000+0 0  9999", "line2": "2 28702   2.8382  81.1982 0002938 194.0723  97.2981  1.00271047 50172"}}, "geometry": {"type": "Point", "coordinates": [63.23415182603092, -0.8556794139737752]}}, {"type": "Feature", "properties": {"norad_id": 29236, "name": "GALAXY 16 (G-16)", "group": "intelsat", "lat": -0.008229721301889205, "lon": 52.89217888209299, "alt_km": 35794.416080373085, "timestamp": "2025-12-22T04:03:38.829418+00:00", "meta": {"OBJECT_NAME": "GALAXY 16 (G-16)", "OBJECT_ID": "2006-023A", "EPOCH": "2025-12-21T16:09:00.789120", "MEAN_MOTION": 1.00270904, "ECCENTRICITY": 0.0002487, "INCLINATION": 0.0149, "RA_OF_ASC_NODE": 168.3011, "ARG_OF_PERICENTER": 104.604, "MEAN_ANOMALY": 320.8302, "EPHEMERIS_TYPE": 0, "CLASSIFICATION_TYPE": "U", "NORAD_CAT_ID": 29236, "ELEMENT_SET_NO": 999, "REV_AT_EPOCH": 7119, "BSTAR": 0, "MEAN_MOTION_DOT": -1.04e-06, "MEAN_MOTION_DDOT": 0}, "tle": {"line1": "1 29236U 06023A   25355.67292580 -.00000104  00000+0  00000+0 0  9996", "line2": "2 29236   0.0149 168.3011 0002487 104.6040 320.8302  1.00270904 71193"}}, "geometry": {"type": "Point", "coordinates": [52.89217888209299, -0.008229721301889205]}}, {"type": "Feature", "properties": {"norad_id": 29494, "name": "DIRECTV 9S", "group": "intelsat", "lat": -1.0345720870239838, "lon": 50.71139075215366, "alt_km": 35794.72458199457, "timestamp": "2025-12-22T04:03:38.829430+00:00", "meta": {"OBJECT_NAME": "DIRECTV 9S", "OBJECT_ID": "2006-043A", "EPOCH": "2025-12-21T14:25:40.685376", "MEAN_MOTION": 1.00271497, "ECCENTRICITY": 0.0002852, "INCLINATION": 1.9616, "RA_OF_ASC_NODE": 83.1199, "ARG_OF_PERICENTER": 193.4802, "MEAN_ANOMALY": 289.0265, "EPHEMERIS_TYPE": 0, "CLASSIFICATION_TYPE": "U", "NORAD_CAT_ID": 29494, "ELEMENT_SET_NO": 999, "REV_AT_EPOCH": 4960, "BSTAR": 0, "MEAN_MOTION_DOT": -9.2e-07, "MEAN_MOTION_DDOT": 0}, "tle": {"line1": "1 29494U 06043A   25355.60116534 -.00000092  00000+0  00000+0 0  9997", "line2": "2 29494   1.9616  83.1199 0002852 193.4802 289.0265  1.00271497 49600"}}, "geometry": {"type": "Point", "coordinates": [50.71139075215366, -1.0345720870239838]}}, {"type": "Feature", "properties": {"norad_id": 31307, "name": "GALAXY 17 (G-17)", "group": "intelsat", "lat": -0.6421220523806485, "lon": 66.9253420194609, "alt_km": 35809.1903660871, "timestamp": "2025-12-22T04:03:38.829441+00:00", "meta": {"OBJECT_NAME": "GALAXY 17 (G-17)", "OBJECT_ID": "2007-016B", "EPOCH": "2025-12-21T14:30:17.743392", "MEAN_MOTION": 1.00270105, "ECCENTRICITY": 0.0005345, "INCLINATION": 2.5208, "RA_OF_ASC_NODE": 82.1857, "ARG_OF_PERICENTER": 170.3657, "MEAN_ANOMALY": 330.468, "EPHEMERIS_TYPE": 0, "CLASSIFICATION_TYPE": "U", "NORAD_CAT_ID": 31307, "ELEMENT_SET_NO": 999, "REV_AT_EPOCH": 6802, "BSTAR": 0, "MEAN_MOTION_DOT": -1.85e-06, "MEAN_MOTION_DDOT": 0}, "tle": {"line1": "1 31307U 07016B   25355.60437203 -.00000185  00000+0  00000+0 0  9996", "line2": "2 31307   2.5208  82.1857 0005345 170.3657 330.4680  1.00270105 68026"}}, "geometry": {"type": "Point", "coordinates": [66.9253420194609, -0.6421220523806485]}}, {"type": "Feature", "properties": {"norad_id": 31862, "name": "DIRECTV 10", "group": "intelsat", "lat": 0.003169724132015518, "lon": 49.08315408819754, "alt_km": 35786.722496314556, "timestamp": "2025-12-22T04:03:38.829453+00:00", "meta": {"OBJECT_NAME": "DIRECTV 10", "OBJECT_ID": "2007-032A", "EPOCH": "2025-12-21T16:08:00.885408", "MEAN_MOTION": 1.00272363, "ECCENTRICITY": 2.03e-05, "INCLINATION": 0.0084, "RA_OF_ASC_NODE": 101.8858, "ARG_OF_PERICENTER": 105.8192, "MEAN_ANOMALY": 21.9876, "EPHEMERIS_TYPE": 0, "CLASSIFICATION_TYPE": "U", "NORAD_CAT_ID": 31862, "ELEMENT_SET_NO": 999, "REV_AT_EPOCH": 4381, "BSTAR": 0, "MEAN_MOTION_DOT": -8.1e-07, "MEAN_MOTION_DDOT": 0}, "tle": {"line1": "1 31862U 07032A   25355.67223247 -.00000081  00000+0  00000+0 0  9993", "line2": "2 31862   0.0084 101.8858 0000203 105.8192  21.9876  1.00272363 43819"}}, "geometry": {"type": "Point", "coordinates": [49.08315408819754, 0.003169724132015518]}}, {"type": "Feature", "properties": {"norad_id": 32253, "name": "INTELSAT 11 (IS-11)", "group": "intelsat", "lat": -3.016849438044164, "lon": -23.809340509938, "alt_km": 36128.94243209276, "timestamp": "2025-12-22T04:03:38.829464+00:00", "meta": {"OBJECT_NAME": "INTELSAT 11 (IS-11)", "OBJECT_ID": "2007-044B", "EPOCH": "2025-12-21T17:30:22.998240", "MEAN_MOTION": 0.99052572, "ECCENTRICITY": 0.0008538, "INCLINATION": 3.1021, "RA_OF_ASC_NODE": 80.8774, "ARG_OF_PERICENTER": 169.4632, "MEAN_ANOMALY": 288.9565, "EPHEMERIS_TYPE": 0, "CLASSIFICATION_TYPE": "U", "NORAD_CAT_ID": 32253, "ELEMENT_SET_NO": 999, "REV_AT_EPOCH": 6669, "BSTAR": 0, "MEAN_MOTION_DOT": -9.7e-07, "MEAN_MOTION_DDOT": 0}, "tle": {"line1": "1 32253U 07044B   25355.72943285 -.00000097  00000+0  00000+0 0  9995", "line2": "2 32253   3.1021  80.8774 0008538 169.4632 288.9565  0.99052572 66692"}}, "geometry": {"type": "Point", "coordinates": [-23.809340509938, -3.016849438044164]}}, {"type": "Feature", "properties": {"norad_id": 32388, "name": "HORIZONS-2", "group": "intelsat", "lat": -0.15294450072781055, "lon": 78.11976986821222, "alt_km": 35804.773945541885, "timestamp": "2025-12-22T04:03:38.829476+00:00", "meta": {"OBJECT_NAME": "HORIZONS-2", "OBJECT_ID": "2007-063B", "EPOCH": "2025-12-21T13:04:20.930016", "MEAN_MOTION": 1.00271247, "ECCENTRICITY": 0.0004613, "INCLINATION": 2.1431, "RA_OF_ASC_NODE": 82.8666, "ARG_OF_PERICENTER": 194.5159, "MEAN_ANOMALY": 295.2836, "EPHEMERIS_TYPE": 0, "CLASSIFICATION_TYPE": "U", "NORAD_CAT_ID": 32388, "ELEMENT_SET_NO": 999, "REV_AT_EPOCH": 6603, "BSTAR": 0, "MEAN_MOTION_DOT": -2.32e-06, "MEAN_MOTION_DDOT": 0}, "tle": {"line1": "1 32388U 07063B   25355.54468669 -.00000232  00000+0  00000+0 0  9994", "line2": "2 32388   2.1431  82.8666 0004613 194.5159 295.2836  1.00271247 66035"}}, "geometry": {"type": "Point", "coordinates": [78.11976986821222, -0.15294450072781055]}}, {"type": "Feature", "properties": {"norad_id": 32729, "name": "DIRECTV 11", "group": "intelsat", "lat": 0.020038750233007583, "lon": 52.67303305445358, "alt_km": 35789.010475482566, "timestamp": "2025-12-22T04:03:38.829487+00:00", "meta": {"OBJECT_NAME": "DIRECTV 11", "OBJECT_ID": "2008-013A", "EPOCH": "2025-12-21T16:09:00.789120", "MEAN_MOTION": 1.00267418, "ECCENTRICITY": 8.57e-05, "INCLINATION": 0.0458, "RA_OF_ASC_NODE": 200.3144, "ARG_OF_PERICENTER": 330.5483, "MEAN_ANOMALY": 62.6867, "EPHEMERIS_TYPE": 0, "CLASSIFICATION_TYPE": "U", "NORAD_CAT_ID": 32729, "ELEMENT_SET_NO": 999, "REV_AT_EPOCH": 4381, "BSTAR": 0, "MEAN_MOTION_DOT": -1.03e-06, "MEAN_MOTION_DDOT": 0}, "tle": {"line1": "1 32729U 08013A   25355.67292580 -.00000103  00000+0  00000+0 0  9997", "line2": "2 32729   0.0458 200.3144 0000857 330.5483  62.6867  1.00267418 43812"}}, "geometry": {"type": "Point", "coordinates": [52.67303305445358, 0.020038750233007583]}}, {"type": "Feature", "properties": {"norad_id": 32951, "name": "GALAXY 18 (G-18)", "group": "intelsat", "lat": -0.0047199979447299, "lon": 28.899848998173965, "alt_km": 35790.96473773899, "timestamp": "2025-12-22T04:03:38.829498+00:00", "meta": {"OBJECT_NAME": "GALAXY 18 (G-18)", "OBJECT_ID": "2008-024A", "EPOCH": "2025-12-21T08:40:28.062624", "MEAN_MOTION": 1.00271198, "ECCENTRICITY": 0.00028473, "INCLINATION": 0.0183, "RA_OF_ASC_NODE": 61.6385, "ARG_OF_PERICENTER": 214.0045, "MEAN_ANOMALY": 181.6446, "EPHEMERIS_TYPE": 0, "CLASSIFICATION_TYPE": "U", "NORAD_CAT_ID": 32951, "ELEMENT_SET_NO": 999, "REV_AT_EPOCH": 4407, "BSTAR": 0, "MEAN_MOTION_DOT": 4.8e-07, "MEAN_MOTION_DDOT": 0}, "tle": {"line1": "1 32951U 08024A   25355.36143591  .00000048  00000+0  00000+0 0  9996", "line2": "2 32951   0.0183  61.6385 0002847 214.0045 181.6446  1.00271198 44074"}}, "geometry": {"type": "Point", "coordinates": [28.899848998173965, -0.0047199979447299]}}]}